EARTHCARE               
1 59908U 24101A   24231.25281878  .00032853  00000+0  46340-3 0  9992
2 59908  96.9858 357.5631 0002978 216.5809 143.5244 15.56529648 12631
